{"type": "FeatureCollection", "features": [ {"type": "Feature", "properties": {"norad_id": 39155, "name": "COSMOS 2485 (747)", "group": "glo-ops", "lat": -10.154644304019866, "lon": 75.00444418597826, "alt_km": 19162.19800018234, "timestamp": "2025-12-17T07:00:47.164130+00:00", "meta": {"OBJECT_NAME": "COSMOS 2485 (747)", "OBJECT_ID": "2013-019A", "EPOCH": "2025-12-16T08:50:22.354656", "MEAN_MOTION": 2.13103052, "ECCENTRICITY": 0.00246679, "INCLINATION": 65.3158, "RA_OF_ASC_NODE": 79.7449, "ARG_OF_PERICENTER": 229.7889, "MEAN_ANOMALY": 130.0094, "EPHEMERIS_TYPE": 0, "CLASSIFICATION_TYPE": "U", "NORAD_CAT_ID": 39155, "ELEMENT_SET_NO": 999, "REV_AT_EPOCH": 9838, "BSTAR": 0, "MEAN_MOTION_DOT": -5.4e-07, "MEAN_MOTION_DDOT": 0}, "tle": {"line1": "1 39155U 13019A   25350.36831429 -.00000054  00000+0  00000+0 0  9996", "line2": "2 39155  65.3158  79.7449 0024667 229.7889 130.0094  2.13103052 98385"}}, "geometry": {"type": "Point", "coordinates": [75.00444418597826, -10.154644304019866]}}, {"type": "Feature", "properties": {"norad_id": 39620, "name": "COSMOS 2492 (754)", "group": "glo-ops", "lat": 18.629991669742033, "lon": -31.017501043198322, "alt_km": 19113.922741696853, "timestamp": "2025-12-17T07:00:47.164142+00:00", "meta": {"OBJECT_NAME": "COSMOS 2492 (754)", "OBJECT_ID": "2014-012A", "EPOCH": "2025-12-16T07:50:46.447872", "MEAN_MOTION": 2.13103282, "ECCENTRICITY": 0.00142536, "INCLINATION": 65.4058, "RA_OF_ASC_NODE": 320.149, "ARG_OF_PERICENTER": 313.159, "MEAN_ANOMALY": 46.7158, "EPHEMERIS_TYPE": 0, "CLASSIFICATION_TYPE": "U", "NORAD_CAT_ID": 39620, "ELEMENT_SET_NO": 999, "REV_AT_EPOCH": 9134, "BSTAR": 0, "MEAN_MOTION_DOT": -6.8e-07, "MEAN_MOTION_DDOT": 0}, "tle": {"line1": "1 39620U 14012A   25350.32692648 -.00000068  00000+0  00000+0 0  9996", "line2": "2 39620  65.4058 320.1490 0014253 313.1590  46.7158  2.13103282 91346"}}, "geometry": {"type": "Point", "coordinates": [-31.017501043198322, 18.629991669742033]}}, {"type": "Feature", "properties": {"norad_id": 40001, "name": "COSMOS 2500 (755)", "group": "glo-ops", "lat": -57.72795910062707, "lon": -173.47676013086362, "alt_km": 19117.8483515203, "timestamp": "2025-12-17T07:00:47.164153+00:00", "meta": {"OBJECT_NAME": "COSMOS 2500 (755)", "OBJECT_ID": "2014-032A", "EPOCH": "2025-12-16T00:42:57.084768", "MEAN_MOTION": 2.13105999, "ECCENTRICITY": 0.00081036, "INCLINATION": 65.3412, "RA_OF_ASC_NODE": 319.9203, "ARG_OF_PERICENTER": 219.1149, "MEAN_ANOMALY": 140.8212, "EPHEMERIS_TYPE": 0, "CLASSIFICATION_TYPE": "U", "NORAD_CAT_ID": 40001, "ELEMENT_SET_NO": 999, "REV_AT_EPOCH": 8955, "BSTAR": 0, "MEAN_MOTION_DOT": -6.8e-07, "MEAN_MOTION_DDOT": 0}, "tle": {"line1": "1 40001U 14032A   25350.02982737 -.00000068  00000+0  00000+0 0  9991", "line2": "2 40001  65.3412 319.9203 0008103 219.1149 140.8212  2.13105999 89558"}}, "geometry": {"type": "Point", "coordinates": [-173.47676013086362, -57.72795910062707]}}, {"type": "Feature", "properties": {"norad_id": 40315, "name": "COSMOS 2501 (702K)", "group": "glo-ops", "lat": 42.50380065130867, "lon": -136.26028156594148, "alt_km": 19171.689574582375, "timestamp": "2025-12-17T07:00:47.164166+00:00", "meta": {"OBJECT_NAME": "COSMOS 2501 (702K)", "OBJECT_ID": "2014-075A", "EPOCH": "2025-12-14T09:54:07.365600", "MEAN_MOTION": 2.13101427, "ECCENTRICITY": 0.00201134, "INCLINATION": 63.6139, "RA_OF_ASC_NODE": 196.7672, "ARG_OF_PERICENTER": 204.2903, "MEAN_ANOMALY": 155.6894, "EPHEMERIS_TYPE": 0, "CLASSIFICATION_TYPE": "U", "NORAD_CAT_ID": 40315, "ELEMENT_SET_NO": 999, "REV_AT_EPOCH": 8591, "BSTAR": 0, "MEAN_MOTION_DOT": 9.7e-07, "MEAN_MOTION_DDOT": 0}, "tle": {"line1": "1 40315U 14075A   25348.41258525  .00000097  00000+0  00000+0 0  9998", "line2": "2 40315  63.6139 196.7672 0020113 204.2903 155.6894  2.13101427 85910"}}, "geometry": {"type": "Point", "coordinates": [-136.26028156594148, 42.50380065130867]}}, {"type": "Feature", "properties": {"norad_id": 41330, "name": "COSMOS 2514 (751)", "group": "glo-ops", "lat": 52.73577462190789, "lon": -3.2144889607202174, "alt_km": 19152.275116062643, "timestamp": "2025-12-17T07:00:47.164177+00:00", "meta": {"OBJECT_NAME": "COSMOS 2514 (751)", "OBJECT_ID": "2016-008A", "EPOCH": "2025-12-16T06:34:00.333408", "MEAN_MOTION": 2.13102686, "ECCENTRICITY": 0.0011947, "INCLINATION": 65.1318, "RA_OF_ASC_NODE": 319.2829, "ARG_OF_PERICENTER": 220.1378, "MEAN_ANOMALY": 139.7678, "EPHEMERIS_TYPE": 0, "CLASSIFICATION_TYPE": "U", "NORAD_CAT_ID": 41330, "ELEMENT_SET_NO": 999, "REV_AT_EPOCH": 7672, "BSTAR": 0, "MEAN_MOTION_DOT": -6.9e-07, "MEAN_MOTION_DDOT": 0}, "tle": {"line1": "1 41330U 16008A   25350.27361497 -.00000069  00000+0  00000+0 0  9994", "line2": "2 41330  65.1318 319.2829 0011947 220.1378 139.7678  2.13102686 76728"}}, "geometry": {"type": "Point", "coordinates": [-3.2144889607202174, 52.73577462190789]}}, {"type": "Feature", "properties": {"norad_id": 42939, "name": "COSMOS 2522 (752)", "group": "glo-ops", "lat": -4.838455257873063, "lon": 20.437895074497636, "alt_km": 19118.319613699678, "timestamp": "2025-12-17T07:00:47.164189+00:00", "meta": {"OBJECT_NAME": "COSMOS 2522 (752)", "OBJECT_ID": "2017-055A", "EPOCH": "2025-12-16T02:41:16.915776", "MEAN_MOTION": 2.13102063, "ECCENTRICITY": 0.00063883, "INCLINATION": 64.0761, "RA_OF_ASC_NODE": 198.1142, "ARG_OF_PERICENTER": 224.0896, "MEAN_ANOMALY": 135.9399, "EPHEMERIS_TYPE": 0, "CLASSIFICATION_TYPE": "U", "NORAD_CAT_ID": 42939, "ELEMENT_SET_NO": 999, "REV_AT_EPOCH": 6407, "BSTAR": 0, "MEAN_MOTION_DOT": 1.09e-06, "MEAN_MOTION_DDOT": 0}, "tle": {"line1": "1 42939U 17055A   25350.11200134  .00000109  00000+0  00000+0 0  9990", "line2": "2 42939  64.0761 198.1142 0006388 224.0896 135.9399  2.13102063 64079"}}, "geometry": {"type": "Point", "coordinates": [20.437895074497636, -4.838455257873063]}}, {"type": "Feature", "properties": {"norad_id": 43508, "name": "COSMOS 2527 (756)", "group": "glo-ops", "lat": -31.863909161087236, "lon": -83.55678760770833, "alt_km": 19112.102571599524, "timestamp": "2025-12-17T07:00:47.164200+00:00", "meta": {"OBJECT_NAME": "COSMOS 2527 (756)", "OBJECT_ID": "2018-053A", "EPOCH": "2025-12-16T01:44:48.838272", "MEAN_MOTION": 2.13102153, "ECCENTRICITY": 0.00087862, "INCLINATION": 65.4745, "RA_OF_ASC_NODE": 80.02, "ARG_OF_PERICENTER": 225.9447, "MEAN_ANOMALY": 133.9962, "EPHEMERIS_TYPE": 0, "CLASSIFICATION_TYPE": "U", "NORAD_CAT_ID": 43508, "ELEMENT_SET_NO": 999, "REV_AT_EPOCH": 5837, "BSTAR": 0, "MEAN_MOTION_DOT": -5.4e-07, "MEAN_MOTION_DDOT": 0}, "tle": {"line1": "1 43508U 18053A   25350.07278748 -.00000054  00000+0  00000+0 0  9993", "line2": "2 43508  65.4745  80.0200 0008786 225.9447 133.9962  2.13102153 58379"}}, "geometry": {"type": "Point", "coordinates": [-83.55678760770833, -31.863909161087236]}}, {"type": "Feature", "properties": {"norad_id": 43687, "name": "COSMOS 2529 (757)", "group": "glo-ops", "lat": 34.830924222544475, "lon": -0.8507950272331203, "alt_km": 19133.106135837847, "timestamp": "2025-12-17T07:00:47.164211+00:00", "meta": {"OBJECT_NAME": "COSMOS 2529 (757)", "OBJECT_ID": "2018-086A", "EPOCH": "2025-12-14T07:02:10.344192", "MEAN_MOTION": 2.13101932, "ECCENTRICITY": 0.00071555, "INCLINATION": 64.2921, "RA_OF_ASC_NODE": 198.8359, "ARG_OF_PERICENTER": 254.022, "MEAN_ANOMALY": 105.9754, "EPHEMERIS_TYPE": 0, "CLASSIFICATION_TYPE": "U", "NORAD_CAT_ID": 43687, "ELEMENT_SET_NO": 999, "REV_AT_EPOCH": 5534, "BSTAR": 0, "MEAN_MOTION_DOT": 9.3e-07, "MEAN_MOTION_DDOT": 0}, "tle": {"line1": "1 43687U 18086A   25348.29317528  .00000093  00000+0  00000+0 0  9990", "line2": "2 43687  64.2921 198.8359 0007155 254.0220 105.9754  2.13101932 55340"}}, "geometry": {"type": "Point", "coordinates": [-0.8507950272331203, 34.830924222544475]}}, {"type": "Feature", "properties": {"norad_id": 44299, "name": "COSMOS 2534 (758)", "group": "glo-ops", "lat": -63.87663325455874, "lon": 120.41840726432498, "alt_km": 19114.25070009791, "timestamp": "2025-12-17T07:00:47.164223+00:00", "meta": {"OBJECT_NAME": "COSMOS 2534 (758)", "OBJECT_ID": "2019-030A", "EPOCH": "2025-12-15T05:49:22.027584", "MEAN_MOTION": 2.13102219, "ECCENTRICITY": 0.00088073, "INCLINATION": 64.3657, "RA_OF_ASC_NODE": 198.8086, "ARG_OF_PERICENTER": 283.8967, "MEAN_ANOMALY": 218.9019, "EPHEMERIS_TYPE": 0, "CLASSIFICATION_TYPE": "U", "NORAD_CAT_ID": 44299, "ELEMENT_SET_NO": 999, "REV_AT_EPOCH": 5100, "BSTAR": 0, "MEAN_MOTION_DOT": 1.03e-06, "MEAN_MOTION_DDOT": 0}, "tle": {"line1": "1 44299U 19030A   25349.24261606  .00000103  00000+0  00000+0 0  9993", "line2": "2 44299  64.3657 198.8086 0008807 283.8967 218.9019  2.13102219 51004"}}, "geometry": {"type": "Point", "coordinates": [120.41840726432498, -63.87663325455874]}}, {"type": "Feature", "properties": {"norad_id": 44850, "name": "COSMOS 2544 (759)", "group": "glo-ops", "lat": -62.84492208237413, "lon": -37.434947670260016, "alt_km": 19101.537340555442, "timestamp": "2025-12-17T07:00:47.164235+00:00", "meta": {"OBJECT_NAME": "COSMOS 2544 (759)", "OBJECT_ID": "2019-088A", "EPOCH": "2025-12-16T00:24:58.723776", "MEAN_MOTION": 2.13101973, "ECCENTRICITY": 0.00138315, "INCLINATION": 65.4622, "RA_OF_ASC_NODE": 79.8485, "ARG_OF_PERICENTER": 249.722, "MEAN_ANOMALY": 110.1429, "EPHEMERIS_TYPE": 0, "CLASSIFICATION_TYPE": "U", "NORAD_CAT_ID": 44850, "ELEMENT_SET_NO": 999, "REV_AT_EPOCH": 4681, "BSTAR": 0, "MEAN_MOTION_DOT": -5.5e-07, "MEAN_MOTION_DDOT": 0}, "tle": {"line1": "1 44850U 19088A   25350.01734634 -.00000055  00000+0  00000+0 0  9999", "line2": "2 44850  65.4622  79.8485 0013831 249.7220 110.1429  2.13101973 46815"}}, "geometry": {"type": "Point", "coordinates": [-37.434947670260016, -62.84492208237413]}}]}